{
    "links": {
        "self": "http://www.neowsapp.com/rest/v1/neo/3555793?api_key=iIulBulltgU6a56xZRHN4H3l9WmuAYTsLGpBGhQ2"
    },
    "id": "3555793",
    "neo_reference_id": "3555793",
    "name": "(2011 BP24)",
    "designation": "2011 BP24",
    "nasa_jpl_url": "http://ssd.jpl.nasa.gov/sbdb.cgi?sstr=3555793",
    "absolute_magnitude_h": 21.2,
    "estimated_diameter": {
        "kilometers": {
            "estimated_diameter_min": 0.1529519353,
            "estimated_diameter_max": 0.3420109247
        },
        "meters": {
            "estimated_diameter_min": 152.9519353442,
            "estimated_diameter_max": 342.0109247198
        },
        "miles": {
            "estimated_diameter_min": 0.095039897,
            "estimated_diameter_max": 0.2125156703
        },
        "feet": {
            "estimated_diameter_min": 501.8108275547,
            "estimated_diameter_max": 1122.0831222578
        }
    },
    "is_potentially_hazardous_asteroid": false,
    "close_approach_data": [
        {
            "close_approach_date": "2011-02-03",
            "close_approach_date_full": "2011-Feb-03 19:53",
            "epoch_date_close_approach": 1296762780000,
            "relative_velocity": {
                "kilometers_per_second": "29.8931239452",
                "kilometers_per_hour": "107615.2462026235",
                "miles_per_hour": "66867.9289529579"
            },
            "miss_distance": {
                "astronomical": "0.231874027",
                "lunar": "90.198996503",
                "kilometers": "34687860.54752249",
                "miles": "21554037.070250762"
            },
            "orbiting_body": "Earth"
        }
    ],
    "orbital_data": {
        "orbit_id": "9",
        "orbit_determination_date": "2017-04-06 08:54:48",
        "first_observation_date": "2011-01-28",
        "last_observation_date": "2011-02-03",
        "data_arc_in_days": 6,
        "observations_used": 41,
        "orbit_uncertainty": "9",
        "minimum_orbit_intersection": ".135704",
        "jupiter_tisserand_invariant": "4.560",
        "epoch_osculation": "2455591.5",
        "eccentricity": ".4406427958983722",
        "semi_major_axis": "1.278432446368523",
        "inclination": "56.63715172431186",
        "ascending_node_longitude": "130.4350806523876",
        "orbital_period": "527.9771209739939",
        "perihelion_distance": ".7151003988335012",
        "perihelion_argument": "114.6515574910843",
        "aphelion_distance": "1.841764493903544",
        "perihelion_time": "2455675.560099098617",
        "mean_anomaly": "302.6838124733956",
        "mean_motion": ".6818477272952367",
        "equinox": "J2000",
        "orbit_class": {
            "orbit_class_type": "APO",
            "orbit_class_description": "Near-Earth asteroid orbits which cross the Earth’s orbit similar to that of 1862 Apollo",
            "orbit_class_range": "a (semi-major axis) > 1.0 AU; q (perihelion) < 1.017 AU"
        }
    },
    "is_sentry_object": false
}